{
  "links" : {
    "next" : "https://api.nasa.gov/neo/rest/v1/feed?start_date=2003-10-23&end_date=2003-10-23&detailed=true&api_key=t0TVs3DtDT2H8Oy2Zy8m2eVrNsAVKAexjcZXUckd",
    "prev" : "https://api.nasa.gov/neo/rest/v1/feed?start_date=2003-10-21&end_date=2003-10-21&detailed=true&api_key=t0TVs3DtDT2H8Oy2Zy8m2eVrNsAVKAexjcZXUckd",
    "self" : "https://api.nasa.gov/neo/rest/v1/feed?start_date=2003-10-22&end_date=2003-10-22&detailed=true&api_key=t0TVs3DtDT2H8Oy2Zy8m2eVrNsAVKAexjcZXUckd"
  },
  "element_count" : 7,
  "near_earth_objects" : {
    "2003-10-22" : [ {
      "links" : {
        "self" : "https://api.nasa.gov/neo/rest/v1/neo/3652985?api_key=t0TVs3DtDT2H8Oy2Zy8m2eVrNsAVKAexjcZXUckd"
      },
      "neo_reference_id" : "3652985",
      "name" : "(2013 UG1)",
      "nasa_jpl_url" : "http://ssd.jpl.nasa.gov/sbdb.cgi?sstr=3652985",
      "absolute_magnitude_h" : 22.4,
      "estimated_diameter" : {
        "kilometers" : {
          "estimated_diameter_min" : 0.0880146521,
          "estimated_diameter_max" : 0.1968067451
        },
        "meters" : {
          "estimated_diameter_min" : 88.0146520901,
          "estimated_diameter_max" : 196.8067450894
        },
        "miles" : {
          "estimated_diameter_min" : 0.0546897524,
          "estimated_diameter_max" : 0.122290004
        },
        "feet" : {
          "estimated_diameter_min" : 288.7619911632,
          "estimated_diameter_max" : 645.6914415591
        }
      },
      "is_potentially_hazardous_asteroid" : false,
      "close_approach_data" : [ {
        "close_approach_date" : "2003-10-22",
        "epoch_date_close_approach" : 1066806000000,
        "relative_velocity" : {
          "kilometers_per_second" : "21.16956575",
          "kilometers_per_hour" : "76210.4367001051",
          "miles_per_hour" : "47354.2016262403"
        },
        "miss_distance" : {
          "astronomical" : "0.2263629766",
          "lunar" : "88.0551986694",
          "kilometers" : "33863420",
          "miles" : "21041754"
        },
        "orbiting_body" : "Earth"
      } ],
      "orbital_data" : {
        "orbit_id" : "19",
        "orbit_determination_date" : "2017-04-06 08:44:05",
        "orbit_uncertainty" : "3",
        "minimum_orbit_intersection" : ".00139774",
        "jupiter_tisserand_invariant" : "7.192",
        "epoch_osculation" : "2458000.5",
        "eccentricity" : ".4829753605748564",
        "semi_major_axis" : ".798269976586885",
        "inclination" : "10.70394092562434",
        "ascending_node_longitude" : "24.5147908867564",
        "orbital_period" : "260.5092329379667",
        "perihelion_distance" : ".4127252468087521",
        "perihelion_argument" : "216.5665593134379",
        "aphelion_distance" : "1.183814706365018",
        "perihelion_time" : "2458076.587435164511",
        "mean_anomaly" : "254.8541042084815",
        "mean_motion" : "1.381908794325629",
        "equinox" : "J2000"
      }
    } ]
  }
}